{
  "type": "FeatureCollection",
  "features": [
    {
      "type": "Feature",
      "properties": {
        "norad_id": 37836,
        "name": "EUTELSAT 16A",
        "group": "eutelsat",
        "lat": -6.489788687798209e-05,
        "lon": 160.62455739071666,
        "alt_km": 35794.92078913111,
        "timestamp": "2025-12-20T03:42:47.063428+00:00",
        "meta_object_name": "EUTELSAT 16A",
        "meta_object_id": "2011-057A",
        "meta_epoch": "2025-12-19T18:28:29.474112",
        "meta_mean_motion": 1.00269089,
        "meta_eccentricity": 0.0005882,
        "meta_inclination": 0.0605,
        "meta_ra_of_asc_node": 336.2541,
        "meta_arg_of_pericenter": 293.431,
        "meta_mean_anomaly": 112.0647,
        "meta_ephemeris_type": 0,
        "meta_classification_type": "U",
        "meta_norad_cat_id": 37836,
        "meta_element_set_no": 999,
        "meta_rev_at_epoch": 552,
        "meta_bstar": 0,
        "meta_mean_motion_dot": 1.28e-06,
        "meta_mean_motion_ddot": 0,
        "tle_line1": "1 37836U 11057A   25353.76978558  .00000128  00000+0  00000+0 0  9993",
        "tle_line2": "2 37836   0.0605 336.2541 0005882 293.4310 112.0647  1.00269089  5527"
      },
      "geometry": {
        "type": "Point",
        "coordinates": [
          160.62455739071666,
          -6.489788687798209e-05
        ]
      }
    },
    {
      "type": "Feature",
      "properties": {
        "norad_id": 38992,
        "name": "EUTELSAT 21B",
        "group": "eutelsat",
        "lat": -0.007815352645323433,
        "lon": 166.24896345018092,
        "alt_km": 35790.70921842973,
        "timestamp": "2025-12-20T03:42:47.063440+00:00",
        "meta_object_name": "EUTELSAT 21B",
        "meta_object_id": "2012-062B",
        "meta_epoch": "2025-12-19T13:22:01.972128",
        "meta_mean_motion": 1.0026865,
        "meta_eccentricity": 0.0003254,
        "meta_inclination": 0.0699,
        "meta_ra_of_asc_node": 337.9686,
        "meta_arg_of_pericenter": 294.4123,
        "meta_mean_anomaly": 38.1437,
        "meta_ephemeris_type": 0,
        "meta_classification_type": "U",
        "meta_norad_cat_id": 38992,
        "meta_element_set_no": 999,
        "meta_rev_at_epoch": 4802,
        "meta_bstar": 0,
        "meta_mean_motion_dot": 1.54e-06,
        "meta_mean_motion_ddot": 0,
        "tle_line1": "1 38992U 12062B   25353.55696727  .00000154  00000+0  00000+0 0  9995",
        "tle_line2": "2 38992   0.0699 337.9686 0003254 294.4123  38.1437  1.00268650 48026"
      },
      "geometry": {
        "type": "Point",
        "coordinates": [
          166.24896345018092,
          -0.007815352645323433
        ]
      }
    },
    {
      "type": "Feature",
      "properties": {
        "norad_id": 39020,
        "name": "EUTELSAT 70B",
        "group": "eutelsat",
        "lat": -0.04964652157288299,
        "lon": -144.8609877116105,
        "alt_km": 35771.92803969848,
        "timestamp": "2025-12-20T03:42:47.063453+00:00",
        "meta_object_name": "EUTELSAT 70B",
        "meta_object_id": "2012-069A",
        "meta_epoch": "2025-12-19T19:47:55.032000",
        "meta_mean_motion": 1.00271396,
        "meta_eccentricity": 0.0004282,
        "meta_inclination": 0.0609,
        "meta_ra_of_asc_node": 3.0444,
        "meta_arg_of_pericenter": 250.121,
        "meta_mean_anomaly": 202.9727,
        "meta_ephemeris_type": 0,
        "meta_classification_type": "U",
        "meta_norad_cat_id": 39020,
        "meta_element_set_no": 999,
        "meta_rev_at_epoch": 4771,
        "meta_bstar": 0,
        "meta_mean_motion_dot": -1.9e-07,
        "meta_mean_motion_ddot": 0,
        "tle_line1": "1 39020U 12069A   25353.82494250 -.00000019  00000+0  00000+0 0  9993",
        "tle_line2": "2 39020   0.0609   3.0444 0004282 250.1210 202.9727  1.00271396 47710"
      },
      "geometry": {
        "type": "Point",
        "coordinates": [
          -144.8609877116105,
          -0.04964652157288299
        ]
      }
    },
    {
      "type": "Feature",
      "properties": {
        "norad_id": 39122,
        "name": "EUTELSAT 117 WEST A",
        "group": "eutelsat",
        "lat": 0.04348159532768795,
        "lon": 27.925602345198858,
        "alt_km": 35790.048577302034,
        "timestamp": "2025-12-20T03:42:47.063465+00:00",
        "meta_object_name": "EUTELSAT 117 WEST A",
        "meta_object_id": "2013-012A",
        "meta_epoch": "2025-12-19T12:21:38.812320",
        "meta_mean_motion": 1.00274631,
        "meta_eccentricity": 0.0002807,
        "meta_inclination": 0.032,
        "meta_ra_of_asc_node": 299.7491,
        "meta_arg_of_pericenter": 334.4616,
        "meta_mean_anomaly": 242.7738,
        "meta_ephemeris_type": 0,
        "meta_classification_type": "U",
        "meta_norad_cat_id": 39122,
        "meta_element_set_no": 999,
        "meta_rev_at_epoch": 4663,
        "meta_bstar": 0,
        "meta_mean_motion_dot": 1.1e-07,
        "meta_mean_motion_ddot": 0,
        "tle_line1": "1 39122U 13012A   25353.51503255  .00000011  00000+0  00000+0 0  9998",
        "tle_line2": "2 39122   0.0320 299.7491 0002807 334.4616 242.7738  1.00274631 46635"
      },
      "geometry": {
        "type": "Point",
        "coordinates": [
          27.925602345198858,
          0.04348159532768795
        ]
      }
    },
    {
      "type": "Feature",
      "properties": {
        "norad_id": 39163,
        "name": "EUTELSAT 7B",
        "group": "eutelsat",
        "lat": 0.0386745874414998,
        "lon": 151.6680622118446,
        "alt_km": 35804.176193838844,
        "timestamp": "2025-12-20T03:42:47.063478+00:00",
        "meta_object_name": "EUTELSAT 7B",
        "meta_object_id": "2013-022A",
        "meta_epoch": "2025-12-19T06:26:58.431840",
        "meta_mean_motion": 1.00270274,
        "meta_eccentricity": 0.0004283,
        "meta_inclination": 0.0652,
        "meta_ra_of_asc_node": 356.9078,
        "meta_arg_of_pericenter": 324.8571,
        "meta_mean_anomaly": 230.1004,
        "meta_ephemeris_type": 0,
        "meta_classification_type": "U",
        "meta_norad_cat_id": 39163,
        "meta_element_set_no": 999,
        "meta_rev_at_epoch": 4614,
        "meta_bstar": 0,
        "meta_mean_motion_dot": 7.3e-07,
        "meta_mean_motion_ddot": 0,
        "tle_line1": "1 39163U 13022A   25353.26873185  .00000073  00000+0  00000+0 0  9996",
        "tle_line2": "2 39163   0.0652 356.9078 0004283 324.8571 230.1004  1.00270274 46140"
      },
      "geometry": {
        "type": "Point",
        "coordinates": [
          151.6680622118446,
          0.0386745874414998
        ]
      }
    },
    {
      "type": "Feature",
      "properties": {
        "norad_id": 39612,
        "name": "EXPRESS-AT1",
        "group": "eutelsat",
        "lat": -0.01741346421126811,
        "lon": -159.33285733649683,
        "alt_km": 35787.03108611613,
        "timestamp": "2025-12-20T03:42:47.063490+00:00",
        "meta_object_name": "EXPRESS-AT1",
        "meta_object_id": "2014-010A",
        "meta_epoch": "2025-12-19T13:31:46.041312",
        "meta_mean_motion": 1.00270605,
        "meta_eccentricity": 4.94e-05,
        "meta_inclination": 0.022,
        "meta_ra_of_asc_node": 3.3546,
        "meta_arg_of_pericenter": 88.7338,
        "meta_mean_anomaly": 255.2488,
        "meta_ephemeris_type": 0,
        "meta_classification_type": "U",
        "meta_norad_cat_id": 39612,
        "meta_element_set_no": 999,
        "meta_rev_at_epoch": 4301,
        "meta_bstar": 0,
        "meta_mean_motion_dot": 0,
        "meta_mean_motion_ddot": 0,
        "tle_line1": "1 39612U 14010A   25353.56372733  .00000000  00000+0  00000+0 0  9999",
        "tle_line2": "2 39612   0.0220   3.3546 0000494  88.7338 255.2488  1.00270605 43015"
      },
      "geometry": {
        "type": "Point",
        "coordinates": [
          -159.33285733649683,
          -0.01741346421126811
        ]
      }
    },
    {
      "type": "Feature",
      "properties": {
        "norad_id": 39613,
        "name": "EXPRESS-AT2",
        "group": "eutelsat",
        "lat": -0.02813102149436846,
        "lon": -75.46581237204478,
        "alt_km": 35781.86316690812,
        "timestamp": "2025-12-20T03:42:47.063502+00:00",
        "meta_object_name": "EXPRESS-AT2",
        "meta_object_id": "2014-010B",
        "meta_epoch": "2025-12-19T15:17:38.440608",
        "meta_mean_motion": 1.00271653,
        "meta_eccentricity": 0.0001024,
        "meta_inclination": 0.0167,
        "meta_ra_of_asc_node": 316.7703,
        "meta_arg_of_pericenter": 332.8216,
        "meta_mean_anomaly": 168.1578,
        "meta_ephemeris_type": 0,
        "meta_classification_type": "U",
        "meta_norad_cat_id": 39613,
        "meta_element_set_no": 999,
        "meta_rev_at_epoch": 4270,
        "meta_bstar": 0,
        "meta_mean_motion_dot": -2.57e-06,
        "meta_mean_motion_ddot": 0,
        "tle_line1": "1 39613U 14010B   25353.63725047 -.00000257  00000+0  00000+0 0  9993",
        "tle_line2": "2 39613   0.0167 316.7703 0001024 332.8216 168.1578  1.00271653 42701"
      },
      "geometry": {
        "type": "Point",
        "coordinates": [
          -75.46581237204478,
          -0.02813102149436846
        ]
      }
    }
  ]
}